{
  "norad_id": 65831,
  "name": "STARLINK-35337",
  "history": [
    {
      "epoch": "2026-04-13T05:41:59.837568Z",
      "apogee_km": 476.15462849824416,
      "perigee_km": 474.2894183064345,
      "latitude_deg": 3.8024157209586556e-05,
      "longitude_deg": 0.8825471730523937,
      "height_km": 476.2730056207931,
      "semi_major_axis_km": 6853.359023402339,
      "eccentricity": 0.00013608,
      "inclination_deg": 53.1566,
      "raan_deg": 287.813,
      "arg_perigee_deg": 99.4662,
      "mean_anomaly_deg": 260.6493,
      "mean_motion_rev_day": 15.30197671
    },
    {
      "epoch": "2026-04-14T20:53:18.500928Z",
      "apogee_km": 476.07658948725475,
      "perigee_km": 474.3701027610696,
      "latitude_deg": -3.30517492001801e-05,
      "longitude_deg": 123.85961674646472,
      "height_km": 475.8996791518863,
      "semi_major_axis_km": 6853.360346124162,
      "eccentricity": 0.0001245,
      "inclination_deg": 53.1587,
      "raan_deg": 280.2273,
      "arg_perigee_deg": 74.9397,
      "mean_anomaly_deg": 285.1741,
      "mean_motion_rev_day": 15.30197228
    },
    {
      "epoch": "2026-04-15T20:24:07.511616Z",
      "apogee_km": 476.1287708323989,
      "perigee_km": 474.41678906936613,
      "latitude_deg": 2.8941288167990778e-05,
      "longitude_deg": 125.63938381608779,
      "height_km": 476.2167148119219,
      "semi_major_axis_km": 6853.409779950882,
      "eccentricity": 0.0001249,
      "inclination_deg": 53.1598,
      "raan_deg": 275.6769,
      "arg_perigee_deg": 93.0713,
      "mean_anomaly_deg": 267.0431,
      "mean_motion_rev_day": 15.30180672
    },
    {
      "epoch": "2026-04-16T19:54:55.849248Z",
      "apogee_km": 476.0879281225307,
      "perigee_km": 474.3732155560565,
      "latitude_deg": -4.271795306318673e-06,
      "longitude_deg": 127.42229200115682,
      "height_km": 476.1346248679631,
      "semi_major_axis_km": 6853.367571839293,
      "eccentricity": 0.0001251,
      "inclination_deg": 53.1587,
      "raan_deg": 271.1269,
      "arg_perigee_deg": 90.4072,
      "mean_anomaly_deg": 269.7072,
      "mean_motion_rev_day": 15.30194808
    },
    {
      "epoch": "2026-04-17T20:59:46.610592Z",
      "apogee_km": 475.78912770037005,
      "perigee_km": 474.5967853545326,
      "latitude_deg": 8.89528001864665e-06,
      "longitude_deg": 105.32846704438536,
      "height_km": 476.19477840178007,
      "semi_major_axis_km": 6853.329956527451,
      "eccentricity": 8.699e-05,
      "inclination_deg": 53.1576,
      "raan_deg": 266.2746,
      "arg_perigee_deg": 99.9928,
      "mean_anomaly_deg": 260.1171,
      "mean_motion_rev_day": 15.30207406
    },
    {
      "epoch": "2026-04-18T17:22:28.022016Z",
      "apogee_km": 476.3975552262191,
      "perigee_km": 473.9002178491637,
      "latitude_deg": -1.2382879975902189e-05,
      "longitude_deg": 154.8733020316823,
      "height_km": 475.90672614352235,
      "semi_major_axis_km": 6853.285886537691,
      "eccentricity": 0.0001822,
      "inclination_deg": 53.1584,
      "raan_deg": 262.3289,
      "arg_perigee_deg": 83.5941,
      "mean_anomaly_deg": 276.5267,
      "mean_motion_rev_day": 15.30222166
    }
  ]
}